IRIDIUM 155             
1 43573U 18061E   21241.52590467  .00000014  00000-0 -20084-5 0  9991
2 43573  86.3920  69.1603 0001797  75.5748 284.5647 14.34217015162145
IRIDIUM 154             
1 43574U 18061F   21241.50687328  .00000012  00000-0 -28371-5 0  9998
2 43574  86.3924  69.2182 0002263  91.5271 268.6184 14.34217205162196
IRIDIUM 163             
1 43575U 18061G   21241.55760475  .00000011  00000-0 -32306-5 0  9991
2 43575  86.3921  69.1658 0001871 103.2218 256.9187 14.34218211162176
IRIDIUM 156             
1 43576U 18061H   21241.53224054  .00000012  00000-0 -26481-5 0  9996
2 43576  86.3921  69.1815 0001675  90.8366 269.3022 14.34218525162162
IRIDIUM 164             
1 43577U 18061J   21241.51321370  .00000010  00000-0 -34283-5 0  9991
2 43577  86.3923  69.2032 0002161  94.1266 266.0177 14.34216956162200
IRIDIUM 159             
1 43578U 18061K   21241.55128904  .00000012  00000-0 -28915-5 0  9991
2 43578  86.3921  69.1609 0002184  91.3666 268.7780 14.34216843162176
IRIDIUM 180             
1 43922U 19002A   21241.41124880  .00000119  00000-0  35450-4 0  9992
2 43922  86.4015   6.0791 0002938 107.2298 252.9220 14.34218509137763
IRIDIUM 176             
1 43923U 19002B   21241.47572847  .00000358  00000-0  52922-4 0  9997
2 43923  86.6147   6.0855 0002413  92.0172 268.1322 14.72248451141378
IRIDIUM 168             
1 43924U 19002C   21241.40489854  .00000123  00000-0  37016-4 0  9993
2 43924  86.4018   6.1095 0002460  95.6542 264.4935 14.34217459137740
IRIDIUM 173             
1 43925U 19002D   21241.39221619  .00000113  00000-0  33200-4 0  9995
2 43925  86.4014   6.0751 0002344  97.0110 263.1352 14.34217238137725
IRIDIUM 169             
1 43926U 19002E   21241.51633753  .00000153  00000-0  43471-4 0  9991
2 43926  86.4229  37.6067 0005057  17.4577 342.6794 14.38609551138249
IRIDIUM 172             
1 43927U 19002F   21241.45564273  .00000133  00000-0  40353-4 0  9999
2 43927  86.4015   6.0512 0002425  98.1570 261.9901 14.34218695137741
IRIDIUM 175             
1 43928U 19002G   21241.46955954  .00000336  00000-0  49396-4 0  9992
2 43928  86.6150   5.9100 0002384 106.1449 254.0030 14.72252346141366
IRIDIUM 171             
1 43929U 19002H   21241.43661893  .00000119  00000-0  35413-4 0  9990
2 43929  86.4024   6.1707 0002451  95.3470 264.8006 14.34217095137737
IRIDIUM 170             
1 43930U 19002J   21241.34601409  .00000339  00000-0  49842-4 0  9994
2 43930  86.6147   6.1458 0002564  95.4432 264.7078 14.72251895141364
IRIDIUM 167             
1 43931U 19002K   21241.43025948  .00000120  00000-0  35622-4 0  9992
2 43931  86.4015   6.0687 0002800 103.2241 256.9267 14.34219390137730
